BEESAT-4                
1 41619U 16040W   22151.12090602  .00009827  00000+0  33286-3 0  9993
2 41619  97.2176 202.2174 0010386 169.1480 190.9988 15.30718858318079
CAS-2T & KS-1Q          
1 41847U 16066G   22151.57997729  .00000395  00000+0  70383-4 0  9990
2 41847  98.5516 216.2666 0362716 260.3289  95.6756 14.38562436291927
NAYIF-1 (EO-88)         
1 42017U 17008BX  22151.15203182  .00012209  00000+0  37116-3 0  9997
2 42017  97.2697 217.5222 0003469 313.6203  46.4752 15.34180226294428
ZHUHAI-1 02 (CAS-4B)    
1 42759U 17034B   22151.78617851  .00004387  00000+0  26507-3 0  9990
2 42759  43.0174  64.5582 0008133 193.1081 203.3125 15.11803832273837
ZHUHAI-1 01 (CAS-4A)    
1 42761U 17034D   22151.89799140  .00004201  00000+0  25371-3 0  9990
2 42761  43.0173  62.7411 0008781 196.1914 249.1520 15.11897264273858
MAX VALIER SAT          
1 42778U 17036P   22151.34974540  .00006557  00000+0  25142-3 0  9991
2 42778  97.2059 193.0401 0011603  37.1390 323.0650 15.26763414274296
RADFXSAT (FOX-1B)       
1 43017U 17073E   22151.14676296  .00002085  00000+0  16230-3 0  9994
2 43017  97.6773  46.0464 0247490 244.3811 113.1644 14.81320633244550
FOX-1D (AO-92)          
1 43137U 18004AC  22151.14808315  .00007958  00000+0  28381-3 0  9995
2 43137  97.3692 226.4633 0008958  70.6088 289.6120 15.29123950243702
DIWATA-2B               
1 43678U 18084H   22151.81905675  .00001210  00000+0  12465-3 0  9995
2 43678  97.9671 284.8914 0009734 348.9632  11.1333 14.92153031195379
ES'HAIL 2               
1 43700U 18090A   22151.64504670  .00000154  00000+0  00000+0 0  9993
2 43700   0.0445 106.2446 0000889 331.2217  69.6940  1.00276103 13105
FOX-1CLIFF (AO-95)      
1 43770U 18099N   22151.07072920  .00002598  00000+0  23408-3 0  9999
2 43770  97.6216 217.8718 0013218 340.9590  19.1136 14.96370567190417
ITASAT 1                
1 43786U 18099AE  22151.46694282  .00002155  00000+0  19429-3 0  9997
2 43786  97.6238 219.1668 0013651 331.0356  29.0107 14.96525214190519
JY1SAT (JO-97)          
1 43803U 18099AX  22151.15599911  .00001545  00000+0  13905-3 0  9991
2 43803  97.6207 218.6151 0013796 331.3913  28.6551 14.97007082190481
UWE-4                   
1 43880U 18111E   22151.16824480  .00002453  00000+0  21192-3 0  9990
2 43880  97.6715  57.7810 0013029  28.0398 332.1524 14.98086036187116
NEXUS (FO-99)           
1 43937U 19003F   22151.36628223  .00009437  00000+0  32203-3 0  9997
2 43937  97.1308 185.3861 0020146 209.5928 150.4175 15.30339675187366
PSAT2 (NO-104)          
1 44354U 19036R   22151.73298415  .00074545 -47677-5  69091-3 0  9999
2 44354  28.5257 294.1043 0237600 142.1198 219.6376 15.37695767162096
JAISAT-1                
1 44419U 19038F   22151.15722874  .00005201  00000+0  26474-3 0  9993
2 44419  97.6347 121.1463 0019236 185.2045 174.8991 15.17104377160433
DUCHIFAT-3              
1 44854U 19089C   22151.47720113  .00003775  00000+0  29612-3 0  9992
2 44854  36.9656 200.9794 0007159  80.1724 279.9728 15.00995296135387
CAS-6 (TO-108)          
1 44881U 19093C   22151.83101045  .00000696  00000+0  94909-4 0  9995
2 44881  97.8921 231.2781 0013744 238.1183 121.8675 14.81712882132314
RS-44 & BREEZE-KM R/B   
1 44909U 19096E   22151.22558263  .00000027  00000+0  64948-4 0  9998
2 44909  82.5229 241.7179 0217256   0.3315 359.7891 12.79713221113307
ORBITAL FACTORY 2 (OF-2)
1 45113U 19071C   22151.03348269  .00016502  00000+0  35544-3 0  9995
2 45113  51.6369 145.0258 0010549  98.7512 261.4670 15.44685826130685
HUSKYSAT-1 (HO-107)     
1 45119U 19071J   22151.48253996  .00015799  00000+0  35020-3 0  9998
2 45119  51.6365 142.7512 0010364  97.8611 262.3553 15.43872906130742
BY70-2                  
1 45857U 20042B   22151.85886997  .00008485  00000+0  11361-2 0  9996
2 45857  97.9540 228.8591 0011604 163.2063 196.9499 14.79638105103008
SALSAT                  
1 46495U 20068K   22150.80410227  .00001358  00000+0  10143-3 0  9996
2 46495  97.7283  92.1008 0016026 342.8664  17.2019 15.04443880 91539
BY70-3                  
1 46839U 20079N   22151.82814685  .00023717  00000+0  56785-3 0  9994
2 46839  97.1986 224.1463 0005923  48.1118  60.8518 15.41422772 87688
RADFXSAT-2 (AO-109)     
1 47311U 21002C   22151.48917584  .00006708  00000+0  27634-3 0  9993
2 47311  60.6873  66.0951 0013138 317.2264  42.7801 15.25078378 75882
UVSQ-SAT                
1 47438U 21006AB  22151.11427913  .00004838  00000+0  25836-3 0  9993
2 47438  97.4376 210.4814 0011063 342.0039  18.0800 15.15530201 74658
DIY-1 (ARDUIQUBE)       
1 47963U 21022AH  22150.95519100  .00010634  00000+0  60281-3 0  9999
2 47963  97.5341  52.5235 0016808 185.2118 174.8941 15.13048035 64308
XW-3 (CAS-9)            
1 50466U 21131B   22151.82621620  .00000136  00000+0  59211-4 0  9998
2 50466  98.5805 229.0875 0004637 182.1433 177.9735 14.38495540 22526
TEVEL-3                 
1 50988U 22002E   22151.85017225  .00008516  00000+0  46875-3 0  9999
2 50988  97.4815 219.1118 0011312 119.9531 351.5391 15.14231052 20908
TEVEL-8                 
1 50989U 22002F   22151.85096174  .00008507  00000+0  46893-3 0  9990
2 50989  97.4838 219.1280 0011427 118.8297 332.1961 15.14179414 20909
TEVEL-5                 
1 50998U 22002Q   22151.80708766  .00008372  00000+0  45474-3 0  9996
2 50998  97.4813 219.1482 0012869 115.3127 339.9223 15.14695420 20907
TEVEL-6                 
1 50999U 22002R   22151.80668361  .00008351  00000+0  45354-3 0  9997
2 50999  97.4812 219.1452 0012952 115.5919 339.0572 15.14699080 20902
TEVEL-1                 
1 51013U 22002AF  22151.85208728  .00008583  00000+0  47275-3 0  9998
2 51013  97.4811 219.0996 0011132 119.8764 351.4698 15.14208285 20905
TEVEL-7                 
1 51062U 22002CG  22151.85224420  .00008550  00000+0  47140-3 0  9994
2 51062  97.4828 219.1199 0011274 118.2511 333.3041 15.14169417 20907
TEVEL-4                 
1 51063U 22002CH  22151.85270301  .00008530  00000+0  47045-3 0  9996
2 51063  97.4829 219.1176 0011235 117.5914 334.3557 15.14162073 20904
TEVEL-2                 
1 51069U 22002CP  22151.85107347  .00008591  00000+0  47295-3 0  9995
2 51069  97.4816 219.1034 0011180 119.3666 352.0514 15.14223650 20901
